<!DOCTYPE html PUBLIC "-//W3C//DTD XHTML 1.0 Strict//EN" "http://www.w3.org/TR/xhtml1/DTD/xhtml1-strict.dtd">
<html xmlns="http://www.w3.org/1999/xhtml">
<head>
<meta http-equiv="Content-Type" content="text/html; charset=iso-8859-1"/>
<title>404 - File Not Found.</title>
<style type="text/css">
<!--
body{margin:0;font-size:.7em;font-family:Verdana, Arial, Helvetica, sans-serif;background:#EEEEEE;}
fieldset{padding:0 15px 10px 15px;}
h1{font-size:2.4em;margin:0;color:#FFF;}
h2{font-size:1.7em;margin:0;color:#CC0000;}
h3{font-size:1.2em;margin:10px 0 0 0;color:#000000;}
#header{width:96%;margin:0 0 0 0;padding:6px 2% 6px 2%;font-family:"trebuchet MS", Verdana, sans-serif;color:#FFF;
background-color:#555555;}
#content{margin:0 0 0 2%;position:relative;}
.content-container{background:#FFF;width:96%;margin-top:8px;padding:10px;position:relative;}
-->
</style>
</head>
<body>
<div id="header"><h1>Server Error</h1></div>
<div id="content">
 <div class="content-container"><fieldset>
  <h2>404 - File Not Found.</h2>
  <h3>File not found for celestrak.org/NORAD/elements/active.txt.</h3>
  <h3>Please contact <a href="mailto:ts.kelso@celestrak.org">ts.kelso@celestrak.org</a> if you have other questions.</h3>
 </fieldset></div>
</div>
</body>
</html>
HXMT (HUIYAN)           
1 42758U 17034A   24058.98200700  .00007446  00000+0  39331-3 0  9998
2 42758  43.0147 165.0016 0002329 248.6859 111.3740 15.15899985370135
FLYING LAPTOP           
1 42831U 17042G   24058.86223727  .00003006  00000+0  28337-3 0  9992
2 42831  97.3829 246.2648 0014465  88.2184 272.0693 14.94416379360658
ZHANGZHENG-1 (CSES)     
1 43194U 18015C   24059.13553462  .00016487  00000+0  73500-3 0  9998
2 43194  97.5923 201.8884 0013455 177.9916 182.1376 15.21412573336963
SALSAT                  
1 46495U 20068K   24058.83146800  .00007989  00000+0  47917-3 0  9996
2 46495  97.8039  15.6136 0013598 337.6265  22.4370 15.11157736187636
IXPE                    
1 49954U 21121A   24058.91667824  .00008708  00000+0  67283-3 0  9991
2 49954   0.2302 130.7078 0009456  84.4146  38.7881 14.96665491  5794
<!DOCTYPE html PUBLIC "-//W3C//DTD XHTML 1.0 Strict//EN" "http://www.w3.org/TR/xhtml1/DTD/xhtml1-strict.dtd">
<html xmlns="http://www.w3.org/1999/xhtml">
<head>
<meta http-equiv="Content-Type" content="text/html; charset=iso-8859-1"/>
<title>404 - File Not Found.</title>
<style type="text/css">
<!--
body{margin:0;font-size:.7em;font-family:Verdana, Arial, Helvetica, sans-serif;background:#EEEEEE;}
fieldset{padding:0 15px 10px 15px;}
h1{font-size:2.4em;margin:0;color:#FFF;}
h2{font-size:1.7em;margin:0;color:#CC0000;}
h3{font-size:1.2em;margin:10px 0 0 0;color:#000000;}
#header{width:96%;margin:0 0 0 0;padding:6px 2% 6px 2%;font-family:"trebuchet MS", Verdana, sans-serif;color:#FFF;
background-color:#555555;}
#content{margin:0 0 0 2%;position:relative;}
.content-container{background:#FFF;width:96%;margin-top:8px;padding:10px;position:relative;}
-->
</style>
</head>
<body>
<div id="header"><h1>Server Error</h1></div>
<div id="content">
 <div class="content-container"><fieldset>
  <h2>404 - File Not Found.</h2>
  <h3>File not found for celestrak.org/NORAD/elements/ses.txt.</h3>
  <h3>Please contact <a href="mailto:ts.kelso@celestrak.org">ts.kelso@celestrak.org</a> if you have other questions.</h3>
 </fieldset></div>
</div>
</body>
</html>
ISS (ZARYA)             
1 25544U 98067A   24059.38110244  .00017250  00000+0  31546-3 0  9999
2 25544  51.6398 139.5586 0005668 300.9145 182.9674 15.49450200441521
ISS DEB                 
1 47853U 98067RZ  24059.16936887  .00755008  37311-3  45274-3 0  9993
2 47853  51.6171  48.5133 0003665  71.8521 288.2827 16.17808236169339
CSS (TIANHE)            
1 48274U 21035A   24059.17527071  .00035741  00000+0  39011-3 0  9992
2 48274  41.4692  35.3730 0007191  50.1256 310.0215 15.62603953161876
ISS (NAUKA)             
1 49044U 21066A   24058.71394694  .00019567  00000+0  35692-3 0  9993
2 49044  51.6382 142.8643 0006015 301.4002  58.6398 15.49426064147325
FREGAT DEB              
1 49271U 11037PF  24055.05954055 -.00001635  00000+0 -41857-2 0  9997
2 49271  51.6454 313.3828 0942410 243.5599 106.5598 12.11391557121345
CSS (WENTIAN)           
1 53239U 22085A   24058.91961976  .00036731  00000+0  40105-3 0  9998
2 53239  41.4691  36.9325 0007135  48.0479 312.0968 15.62585875161598
CSS (MENGTIAN)          
1 54216U 22143A   24058.91961976  .00036731  00000+0  40105-3 0  9999
2 54216  41.4691  36.9325 0007135  48.0479 312.0968 15.62585875 75509
ISS DEB                 
1 57212U 98067VP  24059.16795242  .00081185  00000+0  53909-3 0  9994
2 57212  51.6300 121.8433 0004874 341.8099  18.2725 15.74739638 38675
CREW DRAGON 7           
1 57697U 23128A   24058.71394694  .00019567  00000+0  35692-3 0  9997
2 57697  51.6382 142.8643 0006015 301.4002  58.6398 15.49426064441235
SOYUZ-MS 24             
1 57862U 23143A   24058.71394694  .00019567  00000+0  35692-3 0  9998
2 57862  51.6382 142.8643 0006015 301.4002  58.6398 15.49426064 25563
SHENZHOU-17 (SZ-17)     
1 58146U 23164A   24058.91961976  .00036731  00000+0  40105-3 0  9999
2 58146  41.4691  36.9325 0007135  48.0479 312.0968 15.62585875161590
ISS DEB                 
1 58174U 98067WA  24058.65108739  .00243081  00000+0  12860-2 0  9999
2 58174  51.6310 132.6623 0007318 353.2128   6.8773 15.79302044 19533
ISS DEB                 
1 58229U 98067WC  24058.46005311  .00072042  00000+0  78384-3 0  9992
2 58229  51.6358 138.9304 0002831 327.2174  32.8644 15.62775396 18225
PROGRESS-MS 25          
1 58460U 23184A   24058.71394694  .00019567  00000+0  35692-3 0  9998
2 58460  51.6382 142.8643 0006015 301.4002  58.6398 15.49426064 13622
BEAK                    
1 58612U 98067WD  24058.46895493  .00079293  00000+0  96170-3 0  9994
2 58612  51.6379 141.2448 0004306 306.2743  53.7851 15.59911586 11143
CLARK SAT-1 (AMBITIOUS) 
1 58613U 98067WE  24059.09330853  .00164812  00000+0  14143-2 0  9990
2 58613  51.6341 136.4038 0009268 336.8599  23.1979 15.68283414 11238
TIANZHOU-7              
1 58811U 24013A   24058.91961976  .00036731  00000+0  40105-3 0  9992
2 58811  41.4691  36.9325 0007135  48.0479 312.0968 15.62585875161599
CYGNUS NG-20            
1 58898U 24021A   24058.71394694  .00019567  00000+0  35692-3 0  9994
2 58898  51.6382 142.8643 0006015 301.4002  58.6398 15.49426064  4177
PROGRESS-MS 26          
1 58961U 24029A   24058.52045422  .00021643  00000+0  39393-3 0  9994
2 58961  51.6384 143.8222 0005967 300.5159  59.5240 15.49419231441384
TDRS 3                  
1 19548U 88091B   24056.30888617 -.00000294  00000+0  00000+0 0  9995
2 19548  13.2498 346.7140 0040217 339.2855 250.7224  1.00280810116932
HST                     
1 20580U 90037B   24058.91845267  .00005717  00000+0  27910-3 0  9996
2 20580  28.4697   2.9831 0002569 274.3529  85.6769 15.16110385660273
TDRS 5                  
1 21639U 91054B   24058.96161108 -.00000008  00000+0  00000+0 0  9998
2 21639  14.1773 359.9183 0002962 327.2631  46.8393  1.00655966119289
TDRS 6                  
1 22314U 93003B   24057.27396904 -.00000289  00000+0  00000+0 0  9993
2 22314  14.1594   3.2325 0006977 151.6977  53.4462  1.00271317113964
TDRS 7                  
1 23613U 95035B   24058.85882876 -.00000193  00000+0  00000+0 0  9990
2 23613  13.7277 354.0077 0025189  60.0495 137.2394  1.00270864104821
ISS (ZARYA)             
1 25544U 98067A   24059.38110244  .00017250  00000+0  31546-3 0  9999
2 25544  51.6398 139.5586 0005668 300.9145 182.9674 15.49450200441521
LANDSAT 7               
1 25682U 99020A   24059.12565132  .00000624  00000+0  13768-3 0  9997
2 25682  97.9014  91.0541 0001214  81.0874 314.8731 14.60484576323135
TERRA                   
1 25994U 99068A   24059.13608530  .00000698  00000+0  15629-3 0  9995
2 25994  98.0617 125.8118 0002036  25.5825  34.1765 14.59576126287117
TDRS 8                  
1 26388U 00034A   24058.66771223  .00000105  00000+0  00000+0 0  9991
2 26388  11.3644  38.1073 0004451 265.9963 285.8261  1.00281171 86753
TIMED                   
1 26998U 01055B   24059.21735894  .00001652  00000+0  17157-3 0  9991
2 26998  74.0702 121.1529 0001971 249.2656 110.8315 14.90836745205574
TDRS 9                  
1 27389U 02011A   24058.66997481 -.00000021  00000+0  00000+0 0  9994
2 27389  10.3651  54.8628 0001186 102.8155  84.7488  0.98982541 81967
AQUA                    
1 27424U 02022A   24059.17477036  .00001495  00000+0  32902-3 0  9997
2 27424  98.3187   8.2458 0002093  86.3606 331.3004 14.58917076160679
TDRS 10                 
1 27566U 02055A   24058.66701605  .00000095  00000+0  00000+0 0  9990
2 27566   9.3547  46.1564 0006689 310.0729 229.7423  1.00269636 77807
SORCE                   
1 27651U 03004A   24058.90994987  .00003597  00000+0  34285-3 0  9990
2 27651  39.9949 343.6544 0019982 180.5316 179.5456 14.94060551145741
AURA                    
1 28376U 04026A   24059.11866818  .00001452  00000+0  32457-3 0  9992
2 28376  98.2402   4.8231 0002059  72.0124 288.1299 14.58214834 43672
SWIFT                   
1 28485U 04047A   24058.86074917  .00010796  00000+0  51959-3 0  9997
2 28485  20.5550 249.1514 0008480 298.6286  61.3297 15.15988563 57396
THEMIS A                
1 30580U 07004A   24056.10674598 -.00000375  00000+0  39005-1 0  9997
2 30580  10.7560 274.3375 8321749 299.2367 160.0447  0.87832814 33863
THEMIS D                
1 30797U 07004D   24058.97527362 -.00000291  00000+0  00000+0 0  9998
2 30797   6.9389 267.7728 8305400 309.7265 334.3570  0.87833859 58104
THEMIS E                
1 30798U 07004E   24056.11124789 -.00000324  00000+0  00000+0 0  9996
2 30798   8.3099 286.8375 8302341 291.8449 165.1266  0.87831557 58504
AIM                     
1 31304U 07015A   24059.17153146  .00055264  00000+0  10433-2 0  9996
2 31304  97.8965  23.4786 0004646  59.4918 300.6789 15.48267550926017
